[
    {
        "Altitude(m)": 604221.2002493957,
        "Argument of Periapsis(deg)": 0.0,
        "Eccentricity": 0.0,
        "Inclination(deg)": 60.0,
        "Latitude(deg)": 14.117222599772973,
        "Longitude(deg)": -26.665873243750482,
        "Mean Anomaly(deg)": 16.363599999999998,
        "RAAN(deg)": 65.0,
        "Satellite Name": "Test1 287",
        "Satellite Number": 287,
        "Semi-Major Axis(m)": 6980739.136638005,
        "Time(s)": 0
    },
    {
        "Altitude(m)": 604235.3411206217,
        "Argument of Periapsis(deg)": 0.00010418945913296404,
        "Eccentricity": 0.0,
        "Inclination(deg)": 60.0,
        "Latitude(deg)": 14.651619912767082,
        "Longitude(deg)": -26.377427398346295,
        "Mean Anomaly(deg)": 16.983706145461827,
        "RAAN(deg)": 64.99957995086025,
        "Satellite Name": "Test1 287",
        "Satellite Number": 287,
        "Semi-Major Axis(m)": 6980739.136638005,
        "Time(s)": 10
    }
]